{
  "norad_id": 59786,
  "name": "STARLINK-31862",
  "history": [
    {
      "epoch": "2026-03-28T17:53:37.138272Z",
      "apogee_km": 483.55152778077627,
      "perigee_km": 482.5570667141528,
      "latitude_deg": 2.4567432582774513e-05,
      "longitude_deg": 6.3814814573537015,
      "height_km": 482.8457443873465,
      "semi_major_axis_km": 6861.191297247464,
      "eccentricity": 7.247e-05,
      "inclination_deg": 43.0032,
      "raan_deg": 100.9478,
      "arg_perigee_deg": 268.2731,
      "mean_anomaly_deg": 91.8038,
      "mean_motion_rev_day": 15.27578263
    },
    {
      "epoch": "2026-03-29T01:44:23.832384Z",
      "apogee_km": 483.5698440170072,
      "perigee_km": 482.53243237051356,
      "latitude_deg": -4.678985002301293e-06,
      "longitude_deg": -113.48154484300134,
      "height_km": 482.84620343426747,
      "semi_major_axis_km": 6861.18813819376,
      "eccentricity": 7.56e-05,
      "inclination_deg": 43.0028,
      "raan_deg": 99.1016,
      "arg_perigee_deg": 267.9433,
      "mean_anomaly_deg": 92.1332,
      "mean_motion_rev_day": 15.27579318
    },
    {
      "epoch": "2026-03-30T01:16:44.847840Z",
      "apogee_km": 483.4863904180811,
      "perigee_km": 482.64836291551364,
      "latitude_deg": 3.761865434587957e-05,
      "longitude_deg": -113.07508300588093,
      "height_km": 482.77960296592727,
      "semi_major_axis_km": 6861.204376666797,
      "eccentricity": 6.107e-05,
      "inclination_deg": 43.002,
      "raan_deg": 93.5623,
      "arg_perigee_deg": 278.7858,
      "mean_anomaly_deg": 81.2925,
      "mean_motion_rev_day": 15.27573895
    },
    {
      "epoch": "2026-03-30T07:33:22.260672Z",
      "apogee_km": 483.5567428613522,
      "perigee_km": 482.59891727107515,
      "latitude_deg": -5.666240773954046e-05,
      "longitude_deg": 151.03414029889524,
      "height_km": 482.65498042219855,
      "semi_major_axis_km": 6861.214830066214,
      "eccentricity": 6.98e-05,
      "inclination_deg": 43.0014,
      "raan_deg": 92.0853,
      "arg_perigee_deg": 294.5615,
      "mean_anomaly_deg": 65.5163,
      "mean_motion_rev_day": 15.27570404
    },
    {
      "epoch": "2026-03-30T16:58:19.017120Z",
      "apogee_km": 483.49928841019937,
      "perigee_km": 482.64740053382957,
      "latitude_deg": -1.4164735070933859e-05,
      "longitude_deg": 7.196309116029022,
      "height_km": 482.75622514471195,
      "semi_major_axis_km": 6861.210344472014,
      "eccentricity": 6.208e-05,
      "inclination_deg": 43.0025,
      "raan_deg": 89.8706,
      "arg_perigee_deg": 282.6686,
      "mean_anomaly_deg": 77.4096,
      "mean_motion_rev_day": 15.27571902
    },
    {
      "epoch": "2026-03-31T16:30:39.729312Z",
      "apogee_km": 483.490395187815,
      "perigee_km": 482.64509476323474,
      "latitude_deg": -2.462500866601625e-06,
      "longitude_deg": 7.602806158068847,
      "height_km": 482.8457928001825,
      "semi_major_axis_km": 6861.204744975525,
      "eccentricity": 6.16e-05,
      "inclination_deg": 43.0019,
      "raan_deg": 84.3301,
      "arg_perigee_deg": 269.7526,
      "mean_anomaly_deg": 90.3255,
      "mean_motion_rev_day": 15.27573772
    },
    {
      "epoch": "2026-04-01T16:03:00.782784Z",
      "apogee_km": 483.44657326598553,
      "perigee_km": 482.767310115757,
      "latitude_deg": 3.7658718259525544e-05,
      "longitude_deg": 8.010207570466084,
      "height_km": 482.92992655233974,
      "semi_major_axis_km": 6861.243941690871,
      "eccentricity": 4.95e-05,
      "inclination_deg": 43.0021,
      "raan_deg": 78.7919,
      "arg_perigee_deg": 262.068,
      "mean_anomaly_deg": 98.0116,
      "mean_motion_rev_day": 15.27560682
    },
    {
      "epoch": "2026-04-02T15:35:21.218496Z",
      "apogee_km": 483.50834007341837,
      "perigee_km": 482.6091117615788,
      "latitude_deg": 3.287137786742793e-05,
      "longitude_deg": 8.41834174193737,
      "height_km": 482.8304604640257,
      "semi_major_axis_km": 6861.195725917498,
      "eccentricity": 6.553e-05,
      "inclination_deg": 43.001,
      "raan_deg": 73.2519,
      "arg_perigee_deg": 270.5634,
      "mean_anomaly_deg": 89.5143,
      "mean_motion_rev_day": 15.27576784
    },
    {
      "epoch": "2026-04-03T15:07:41.293056Z",
      "apogee_km": 483.9634832271131,
      "perigee_km": 482.1054779901642,
      "latitude_deg": -1.2241256213342573e-05,
      "longitude_deg": 8.830241163928761,
      "height_km": 482.72019828789485,
      "semi_major_axis_km": 6861.171480608638,
      "eccentricity": 0.0001354,
      "inclination_deg": 43.0006,
      "raan_deg": 67.7142,
      "arg_perigee_deg": 275.6227,
      "mean_anomaly_deg": 84.447,
      "mean_motion_rev_day": 15.27584881
    },
    {
      "epoch": "2026-04-04T14:40:03.372096Z",
      "apogee_km": 483.632127599677,
      "perigee_km": 482.50688973225624,
      "latitude_deg": 1.109426113633699e-05,
      "longitude_deg": 9.231037906106,
      "height_km": 482.81191019692994,
      "semi_major_axis_km": 6861.206508665967,
      "eccentricity": 8.2e-05,
      "inclination_deg": 43.0028,
      "raan_deg": 62.1737,
      "arg_perigee_deg": 273.476,
      "mean_anomaly_deg": 86.5998,
      "mean_motion_rev_day": 15.27573183
    },
    {
      "epoch": "2026-04-05T14:12:23.838912Z",
      "apogee_km": 483.56117255682966,
      "perigee_km": 482.5662984501814,
      "latitude_deg": 2.9917111557936488e-05,
      "longitude_deg": 9.640365005896474,
      "height_km": 482.8396678692137,
      "semi_major_axis_km": 6861.200735503506,
      "eccentricity": 7.25e-05,
      "inclination_deg": 43.0031,
      "raan_deg": 56.635,
      "arg_perigee_deg": 270.0601,
      "mean_anomaly_deg": 90.0168,
      "mean_motion_rev_day": 15.27575111
    },
    {
      "epoch": "2026-04-05T22:03:11.436768Z",
      "apogee_km": 483.6474727750856,
      "perigee_km": 482.5893299670861,
      "latitude_deg": 2.697900387204833e-05,
      "longitude_deg": -110.22570967403539,
      "height_km": 482.8480624089457,
      "semi_major_axis_km": 6861.255401371085,
      "eccentricity": 7.711e-05,
      "inclination_deg": 43.0028,
      "raan_deg": 54.7895,
      "arg_perigee_deg": 275.0757,
      "mean_anomaly_deg": 85.0007,
      "mean_motion_rev_day": 15.27556855
    },
    {
      "epoch": "2026-04-07T05:26:18.129408Z",
      "apogee_km": 483.9055033271443,
      "perigee_km": 482.14959409583753,
      "latitude_deg": -8.40695548427792e-06,
      "longitude_deg": 130.3234192494472,
      "height_km": 482.7628284463072,
      "semi_major_axis_km": 6861.164548711491,
      "eccentricity": 0.00012796,
      "inclination_deg": 43.0001,
      "raan_deg": 47.4055,
      "arg_perigee_deg": 272.6987,
      "mean_anomaly_deg": 87.3718,
      "mean_motion_rev_day": 15.27587196
    },
    {
      "epoch": "2026-04-07T21:07:52.720320Z",
      "apogee_km": 483.55928381300964,
      "perigee_km": 482.57264282688357,
      "latitude_deg": 1.0175101610258732e-06,
      "longitude_deg": -109.40858764090176,
      "height_km": 482.91023321323473,
      "semi_major_axis_km": 6861.202963319946,
      "eccentricity": 7.19e-05,
      "inclination_deg": 42.9984,
      "raan_deg": 43.7121,
      "arg_perigee_deg": 262.0351,
      "mean_anomaly_deg": 98.0419,
      "mean_motion_rev_day": 15.27574367
    },
    {
      "epoch": "2026-04-08T12:49:26.327136Z",
      "apogee_km": 483.7740730100386,
      "perigee_km": 482.35668582249946,
      "latitude_deg": -3.441031417758413e-05,
      "longitude_deg": 10.86276918087114,
      "height_km": 482.7947947893108,
      "semi_major_axis_km": 6861.202379416269,
      "eccentricity": 0.00010329,
      "inclination_deg": 43.0011,
      "raan_deg": 40.018,
      "arg_perigee_deg": 273.8111,
      "mean_anomaly_deg": 86.2622,
      "mean_motion_rev_day": 15.27574562
    },
    {
      "epoch": "2026-04-09T12:21:47.060928Z",
      "apogee_km": 483.7786630511946,
      "perigee_km": 482.3438492718651,
      "latitude_deg": 5.876869029872601e-05,
      "longitude_deg": 11.27035862070657,
      "height_km": 482.78397344615104,
      "semi_major_axis_km": 6861.19825616153,
      "eccentricity": 0.00010456,
      "inclination_deg": 43.0024,
      "raan_deg": 34.4786,
      "arg_perigee_deg": 274.3127,
      "mean_anomaly_deg": 85.7606,
      "mean_motion_rev_day": 15.27575939
    },
    {
      "epoch": "2026-04-10T04:03:21.172320Z",
      "apogee_km": 483.64632752451416,
      "perigee_km": 482.4694953733033,
      "latitude_deg": 6.595259833466187e-05,
      "longitude_deg": 131.54135291403708,
      "height_km": 482.6972789843218,
      "semi_major_axis_km": 6861.194911448909,
      "eccentricity": 8.576e-05,
      "inclination_deg": 43.0025,
      "raan_deg": 30.7862,
      "arg_perigee_deg": 283.4771,
      "mean_anomaly_deg": 76.5986,
      "mean_motion_rev_day": 15.27577056
    },
    {
      "epoch": "2026-04-11T11:26:28.692672Z",
      "apogee_km": 483.7095469060396,
      "perigee_km": 482.41140834327325,
      "latitude_deg": -2.408050308379032e-06,
      "longitude_deg": 12.085089000150688,
      "height_km": 482.69297890224055,
      "semi_major_axis_km": 6861.197477624656,
      "eccentricity": 9.46e-05,
      "inclination_deg": 43.0089,
      "raan_deg": 23.4003,
      "arg_perigee_deg": 282.8907,
      "mean_anomaly_deg": 77.1839,
      "mean_motion_rev_day": 15.27576199
    },
    {
      "epoch": "2026-04-13T02:40:23.253600Z",
      "apogee_km": 483.8762761790649,
      "perigee_km": 482.2042072852555,
      "latitude_deg": -1.3155211126974453e-06,
      "longitude_deg": 132.76715800778655,
      "height_km": 482.8333938484283,
      "semi_major_axis_km": 6861.17724173216,
      "eccentricity": 0.00012185,
      "inclination_deg": 43.0014,
      "raan_deg": 14.1709,
      "arg_perigee_deg": 268.8726,
      "mean_anomaly_deg": 91.1986,
      "mean_motion_rev_day": 15.27582957
    }
  ]
}